COSMOS 2251 DEB         
1 35043U 93036AHG 26115.06878105  .00018592  00000+0  20759-2 0  9995
2 35043  73.9463 141.2109 0087460 312.7807  46.6037 14.84174197693921
COSMOS 2251 DEB         
1 35045U 93036AHJ 26116.51799468  .00000547  00000+0  33381-3 0  9999
2 35045  73.7181 174.6144 0180164  36.0974 325.2164 14.00682710865306
COSMOS 2251 DEB         
1 35060U 93036AHP 26104.42963070  .00000526  00000+0  16836-3 0  9998
2 35060  74.0397  17.0053 0016931  77.7445 282.5606 14.41897261890106
COSMOS 2251 DEB         
1 35061U 93036AHQ 26116.52905599  .00003826  00000+0  65044-3 0  9996
2 35061  74.0457  45.1668 0039798 125.4496 235.0400 14.68963641905535
COSMOS 2251 DEB         
1 35062U 93036AHR 26116.67919949  .00004000  00000+0  16032-2 0  9994
2 35062  74.0780 210.9977 0125915 177.3130 182.8723 14.24344688874198
COSMOS 2251 DEB         
1 35065U 93036AHU 26115.21308003  .00001083  00000+0  30966-3 0  9990
2 35065  74.0184 305.0738 0019085  40.2186 320.0380 14.46178799702804
COSMOS 2251 DEB         
1 35071U 93036AJA 26115.11403374  .00011515  00000+0  74008-3 0  9999
2 35071  73.9299 258.4402 0064776 122.6021 238.1445 15.06724113695430
COSMOS 2251 DEB         
1 35073U 93036AJC 26113.56155258  .00041728  00000+0  22447-2 0  9991
2 35073  73.9894  58.8753 0015692 173.9925 186.1460 15.14556537694653
COSMOS 2251 DEB         
1 35284U 93036AJN 26114.72904791  .00000262  00000+0  94376-4 0  9998
2 35284  74.0511  19.5291 0015513  67.3540 324.1305 14.38466019674387
COSMOS 2251 DEB         
1 35287U 93036AJR 26115.53195789  .00000236  00000+0  89286-4 0  9995
2 35287  74.0323  30.2622 0017008 100.0913  80.0396 14.36489739888139
COSMOS 2251 DEB         
1 35288U 93036AJS 26116.35462984  .00006866  00000+0  12109-2 0  9994
2 35288  73.9469 114.2981 0038373 309.9351  49.8448 14.67198796898512
COSMOS 2251 DEB         
1 35290U 93036AJU 26116.43039947  .00013742  00000+0  16112-2 0  9994
2 35290  74.0024 152.4258 0008059 252.9118 107.1179 14.84991617899546
COSMOS 2251 DEB         
1 35433U 93036AKB 26113.70277205  .00000405  00000+0  15096-3 0  9994
2 35433  74.0318  96.6133 0025442 125.0132  52.5198 14.34965806884738
COSMOS 2251 DEB         
1 35434U 93036AKC 26116.33401902  .00001201  00000+0  49290-3 0  9998
2 35434  74.0408 330.5927 0085700   9.8081 350.4713 14.26161017880366
COSMOS 2251 DEB         
1 35435U 93036AKD 26116.01185506  .00015850  00000+0  19540-2 0  9992
2 35435  74.0094 198.8374 0011045 265.7482 271.5799 14.82863419895267
COSMOS 2251 DEB         
1 35439U 93036AKH 26116.67437823  .00001578  00000+0  95943-3 0  9994
2 35439  74.0165 263.3797 0241560  42.7369 336.4223 13.93521032858402
