[{"OBJECT_NAME":"COSMOS 2251 DEB","OBJECT_ID":"1993-036AHG","EPOCH":"2026-04-25T01:39:02.682720","MEAN_MOTION":14.84174197,"ECCENTRICITY":0.00874609,"INCLINATION":73.9463,"RA_OF_ASC_NODE":141.2109,"ARG_OF_PERICENTER":312.7807,"MEAN_ANOMALY":46.6037,"EPHEMERIS_TYPE":0,"CLASSIFICATION_TYPE":"U","NORAD_CAT_ID":35043,"ELEMENT_SET_NO":999,"REV_AT_EPOCH":69392,"BSTAR":0.0020759285,"MEAN_MOTION_DOT":0.00018592,"MEAN_MOTION_DDOT":0},{"OBJECT_NAME":"COSMOS 2251 DEB","OBJECT_ID":"1993-036AHJ","EPOCH":"2026-04-26T12:25:54.740352","MEAN_MOTION":14.0068271,"ECCENTRICITY":0.01801641,"INCLINATION":73.7181,"RA_OF_ASC_NODE":174.6144,"ARG_OF_PERICENTER":36.0974,"MEAN_ANOMALY":325.2164,"EPHEMERIS_TYPE":0,"CLASSIFICATION_TYPE":"U","NORAD_CAT_ID":35045,"ELEMENT_SET_NO":999,"REV_AT_EPOCH":86530,"BSTAR":0.00033380505,"MEAN_MOTION_DOT":5.47e-6,"MEAN_MOTION_DDOT":0},{"OBJECT_NAME":"COSMOS 2251 DEB","OBJECT_ID":"1993-036AHP","EPOCH":"2026-04-14T10:18:40.092480","MEAN_MOTION":14.41897261,"ECCENTRICITY":0.00169316,"INCLINATION":74.0397,"RA_OF_ASC_NODE":17.0053,"ARG_OF_PERICENTER":77.7445,"MEAN_ANOMALY":282.5606,"EPHEMERIS_TYPE":0,"CLASSIFICATION_TYPE":"U","NORAD_CAT_ID":35060,"ELEMENT_SET_NO":999,"REV_AT_EPOCH":89010,"BSTAR":0.00016836465,"MEAN_MOTION_DOT":5.26e-6,"MEAN_MOTION_DDOT":0},{"OBJECT_NAME":"COSMOS 2251 DEB","OBJECT_ID":"1993-036AHQ","EPOCH":"2026-04-26T12:41:50.437536","MEAN_MOTION":14.68963641,"ECCENTRICITY":0.0039798,"INCLINATION":74.0457,"RA_OF_ASC_NODE":45.1668,"ARG_OF_PERICENTER":125.4496,"MEAN_ANOMALY":235.04,"EPHEMERIS_TYPE":0,"CLASSIFICATION_TYPE":"U","NORAD_CAT_ID":35061,"ELEMENT_SET_NO":999,"REV_AT_EPOCH":90553,"BSTAR":0.00065043946,"MEAN_MOTION_DOT":3.826e-5,"MEAN_MOTION_DDOT":0},{"OBJECT_NAME":"COSMOS 2251 DEB","OBJECT_ID":"1993-036AHR","EPOCH":"2026-04-26T16:18:02.835936","MEAN_MOTION":14.24344688,"ECCENTRICITY":0.0125915,"INCLINATION":74.078,"RA_OF_ASC_NODE":210.9977,"ARG_OF_PERICENTER":177.313,"MEAN_ANOMALY":182.8723,"EPHEMERIS_TYPE":0,"CLASSIFICATION_TYPE":"U","NORAD_CAT_ID":35062,"ELEMENT_SET_NO":999,"REV_AT_EPOCH":87419,"BSTAR":0.0016032,"MEAN_MOTION_DOT":4.0e-5,"MEAN_MOTION_DDOT":0},{"OBJECT_NAME":"COSMOS 2251 DEB","OBJECT_ID":"1993-036AHU","EPOCH":"2026-04-25T05:06:50.114592","MEAN_MOTION":14.46178799,"ECCENTRICITY":0.0019085,"INCLINATION":74.0184,"RA_OF_ASC_NODE":305.0738,"ARG_OF_PERICENTER":40.2186,"MEAN_ANOMALY":320.038,"EPHEMERIS_TYPE":0,"CLASSIFICATION_TYPE":"U","NORAD_CAT_ID":35065,"ELEMENT_SET_NO":999,"REV_AT_EPOCH":70280,"BSTAR":0.00030966,"MEAN_MOTION_DOT":1.083e-5,"MEAN_MOTION_DDOT":0},{"OBJECT_NAME":"COSMOS 2251 DEB","OBJECT_ID":"1993-036AJA","EPOCH":"2026-04-25T02:44:12.515136","MEAN_MOTION":15.06724113,"ECCENTRICITY":0.00647767,"INCLINATION":73.9299,"RA_OF_ASC_NODE":258.4402,"ARG_OF_PERICENTER":122.6021,"MEAN_ANOMALY":238.1445,"EPHEMERIS_TYPE":0,"CLASSIFICATION_TYPE":"U","NORAD_CAT_ID":35071,"ELEMENT_SET_NO":999,"REV_AT_EPOCH":69543,"BSTAR":0.00074008181,"MEAN_MOTION_DOT":0.00011515,"MEAN_MOTION_DDOT":0},{"OBJECT_NAME":"COSMOS 2251 DEB","OBJECT_ID":"1993-036AJC","EPOCH":"2026-04-23T13:28:38.142912","MEAN_MOTION":15.14556537,"ECCENTRICITY":0.00156928,"INCLINATION":73.9894,"RA_OF_ASC_NODE":58.8753,"ARG_OF_PERICENTER":173.9925,"MEAN_ANOMALY":186.146,"EPHEMERIS_TYPE":0,"CLASSIFICATION_TYPE":"U","NORAD_CAT_ID":35073,"ELEMENT_SET_NO":999,"REV_AT_EPOCH":69465,"BSTAR":0.0022446628,"MEAN_MOTION_DOT":0.00041728,"MEAN_MOTION_DDOT":0},{"OBJECT_NAME":"COSMOS 2251 DEB","OBJECT_ID":"1993-036AJN","EPOCH":"2026-04-24T17:29:49.739424","MEAN_MOTION":14.38466019,"ECCENTRICITY":0.00155132,"INCLINATION":74.0511,"RA_OF_ASC_NODE":19.5291,"ARG_OF_PERICENTER":67.354,"MEAN_ANOMALY":324.1305,"EPHEMERIS_TYPE":0,"CLASSIFICATION_TYPE":"U","NORAD_CAT_ID":35284,"ELEMENT_SET_NO":999,"REV_AT_EPOCH":67438,"BSTAR":9.4375886e-5,"MEAN_MOTION_DOT":2.62e-6,"MEAN_MOTION_DDOT":0},{"OBJECT_NAME":"COSMOS 2251 DEB","OBJECT_ID":"1993-036AJR","EPOCH":"2026-04-25T12:46:01.161696","MEAN_MOTION":14.36489739,"ECCENTRICITY":0.00170087,"INCLINATION":74.0323,"RA_OF_ASC_NODE":30.2622,"ARG_OF_PERICENTER":100.0913,"MEAN_ANOMALY":80.0396,"EPHEMERIS_TYPE":0,"CLASSIFICATION_TYPE":"U","NORAD_CAT_ID":35287,"ELEMENT_SET_NO":999,"REV_AT_EPOCH":88813,"BSTAR":8.9285716e-5,"MEAN_MOTION_DOT":2.36e-6,"MEAN_MOTION_DDOT":0},{"OBJECT_NAME":"COSMOS 2251 DEB","OBJECT_ID":"1993-036AJS","EPOCH":"2026-04-26T08:30:40.018176","MEAN_MOTION":14.67198796,"ECCENTRICITY":0.00383739,"INCLINATION":73.9469,"RA_OF_ASC_NODE":114.2981,"ARG_OF_PERICENTER":309.9351,"MEAN_ANOMALY":49.8448,"EPHEMERIS_TYPE":0,"CLASSIFICATION_TYPE":"U","NORAD_CAT_ID":35288,"ELEMENT_SET_NO":999,"REV_AT_EPOCH":89851,"BSTAR":0.0012109412,"MEAN_MOTION_DOT":6.866e-5,"MEAN_MOTION_DDOT":0},{"OBJECT_NAME":"COSMOS 2251 DEB","OBJECT_ID":"1993-036AJU","EPOCH":"2026-04-26T10:19:46.514208","MEAN_MOTION":14.84991617,"ECCENTRICITY":0.00080596,"INCLINATION":74.0024,"RA_OF_ASC_NODE":152.4258,"ARG_OF_PERICENTER":252.9118,"MEAN_ANOMALY":107.1179,"EPHEMERIS_TYPE":0,"CLASSIFICATION_TYPE":"U","NORAD_CAT_ID":35290,"ELEMENT_SET_NO":999,"REV_AT_EPOCH":89954,"BSTAR":0.0016111779,"MEAN_MOTION_DOT":0.00013742,"MEAN_MOTION_DDOT":0},{"OBJECT_NAME":"COSMOS 2251 DEB","OBJECT_ID":"1993-036AKB","EPOCH":"2026-04-23T16:51:59.505120","MEAN_MOTION":14.34965806,"ECCENTRICITY":0.00254428,"INCLINATION":74.0318,"RA_OF_ASC_NODE":96.6133,"ARG_OF_PERICENTER":125.0132,"MEAN_ANOMALY":52.5198,"EPHEMERIS_TYPE":0,"CLASSIFICATION_TYPE":"U","NORAD_CAT_ID":35433,"ELEMENT_SET_NO":999,"REV_AT_EPOCH":88473,"BSTAR":0.00015095513,"MEAN_MOTION_DOT":4.05e-6,"MEAN_MOTION_DDOT":0},{"OBJECT_NAME":"COSMOS 2251 DEB","OBJECT_ID":"1993-036AKC","EPOCH":"2026-04-26T08:00:59.243328","MEAN_MOTION":14.26161017,"ECCENTRICITY":0.00857007,"INCLINATION":74.0408,"RA_OF_ASC_NODE":330.5927,"ARG_OF_PERICENTER":9.8081,"MEAN_ANOMALY":350.4713,"EPHEMERIS_TYPE":0,"CLASSIFICATION_TYPE":"U","NORAD_CAT_ID":35434,"ELEMENT_SET_NO":999,"REV_AT_EPOCH":88036,"BSTAR":0.00049289668,"MEAN_MOTION_DOT":1.201e-5,"MEAN_MOTION_DDOT":0},{"OBJECT_NAME":"COSMOS 2251 DEB","OBJECT_ID":"1993-036AKD","EPOCH":"2026-04-26T00:17:04.277184","MEAN_MOTION":14.82863419,"ECCENTRICITY":0.00110454,"INCLINATION":74.0094,"RA_OF_ASC_NODE":198.8374,"ARG_OF_PERICENTER":265.7482,"MEAN_ANOMALY":271.5799,"EPHEMERIS_TYPE":0,"CLASSIFICATION_TYPE":"U","NORAD_CAT_ID":35435,"ELEMENT_SET_NO":999,"REV_AT_EPOCH":89526,"BSTAR":0.0019540048,"MEAN_MOTION_DOT":0.0001585,"MEAN_MOTION_DDOT":0},{"OBJECT_NAME":"COSMOS 2251 DEB","OBJECT_ID":"1993-036AKH","EPOCH":"2026-04-26T16:11:06.279072","MEAN_MOTION":13.93521032,"ECCENTRICITY":0.024156,"INCLINATION":74.0165,"RA_OF_ASC_NODE":263.3797,"ARG_OF_PERICENTER":42.7369,"MEAN_ANOMALY":336.4223,"EPHEMERIS_TYPE":0,"CLASSIFICATION_TYPE":"U","NORAD_CAT_ID":35439,"ELEMENT_SET_NO":999,"REV_AT_EPOCH":85840,"BSTAR":0.00095943,"MEAN_MOTION_DOT":1.578e-5,"MEAN_MOTION_DDOT":0}]
